HODOYOSHI-4             
1 40011U 14033B   26168.16855111  .00000176  00000+0  24730-4 0  9991
2 40011  97.5445 352.9918 0022555 308.6682  51.2517 14.88125721648807
DEIMOS-2                
1 40013U 14033D   26168.18315111  .00001125  00000+0  11139-3 0  9999
2 40013  97.5825  42.6722 0001411  47.3404 312.7935 14.93724142637720
HODOYOSHI-3             
1 40015U 14033F   26168.18501586  .00000815  00000+0  99907-4 0  9999
2 40015  97.6417 331.2255 0032688 357.3361   2.7675 14.85388519647626
SPOT 7                  
1 40053U 14034A   26168.18157803  .00000285  00000+0  67318-4 0  9993
2 40053  98.0630 230.6732 0001206  92.4183 267.7156 14.60958328637139
SKYSAT-B                
1 40072U 14037D   26167.85615966  .00001135  00000+0  13026-3 0  9990
2 40072  98.3839 126.8022 0004206 283.2446  76.8299 14.88027256645916
WORLDVIEW-3 (WV-3)      
1 40115U 14048A   26168.16736433  .00000666  00000+0  84323-4 0  9995
2 40115  97.8567 243.0005 0000989  26.0300 334.0965 14.85021902641908
GAOFEN-2                
1 40118U 14049A   26168.17634972 -.00000127  00000+0 -94984-5 0  9994
2 40118  98.0112 232.3833 0006119 227.2194 132.8504 14.80896664639233
YAOGAN-21               
1 40143U 14053A   26168.16260961  .00004140  00000+0  16171-3 0  9996
2 40143  97.1468 208.3989 0009968  93.6249 266.6130 15.26371775654950
YAOGAN-22               
1 40275U 14063A   26168.18568807 -.00000063  00000+0 -42531-4 0  9997
2 40275 100.7724 319.4588 0006341 185.2733 174.8312 13.15531089559812
ASNARO                  
1 40298U 14070A   26168.15929043  .00005584  00000+0  26659-3 0  9993
2 40298  97.3453 244.2736 0005640 165.8981 194.2413 15.19432636644005
YAOGAN-24               
1 40310U 14072A   26168.21766003  .00000699  00000+0  10861-3 0  9992
2 40310  98.1492 305.5554 0012533 263.5093  96.4689 14.76223316623729
CBERS 4                 
1 40336U 14079A   26168.17661615  .00000001  00000+0  15125-4 0  9991
2 40336  98.3532 225.0084 0001839  64.3753 295.7623 14.35508874603950
YAOGAN-26               
1 40362U 14088A   26168.19823596  .00022753  00000+0  44594-3 0  9999
2 40362  97.0635 168.4074 0006006  67.5957 292.5930 15.47357520637700
SMAP                    
1 40376U 15003A   26168.14826875  .00000335  00000+0  73834-4 0  9992
2 40376  98.1276 175.2433 0001328  96.8431 263.2922 14.63366622607610
KOMPSAT-3A              
1 40536U 15014A   26168.24185541  .00021269  00000+0  30810-3 0  9996
2 40536  97.6885 159.6081 0056477 174.2868 185.9042 15.53995951621828
SENTINEL-2A             
1 40697U 15028A   26168.14476082 -.00000079  00000+0 -13336-4 0  9994
2 40697  98.5689 242.9966 0001097  91.4109 268.7200 14.30814810573721
GAOFEN-8                
1 40701U 15030A   26168.21721789  .00011819  00000+0  24434-3 0  9990
2 40701  97.6896   1.5884 0008693 186.3664 173.7475 15.45945835611455
CARBONITE 1 (CBNT-1)    
1 40718U 15032D   26168.18251255  .00001219  00000+0  15385-3 0  9990
2 40718  97.6499 346.2485 0013174 298.0259  61.9623 14.83586115589347
YAOGAN-27               
1 40878U 15040A   26168.18060294  .00000190  00000+0  61140-3 0  9994
2 40878 100.1145 154.5637 0007666 210.3727 149.6943 13.16069682517662
GAOFEN-9 01             
1 40894U 15047A   26168.19753560  .00000823  00000+0  10706-3 0  9990
2 40894  97.6275 203.8919 0028398 137.7682 222.5727 14.82883926580190
YAOGAN-28               
1 41026U 15064A   26168.19172959  .00005880  00000+0  22148-3 0  9995
2 41026  97.3080 306.4527 0010606 183.2076 176.9097 15.27420841590680
YAOGAN-29               
1 41038U 15069A   26168.17781176  .00000674  00000+0  89405-4 0  9994
2 41038  98.0021 196.8106 0002607  55.8914 304.2547 14.83086557570628
KENT RIDGE 1            
1 41167U 15077B   26167.90148142  .00003500  00000+0  11248-3 0  9996
2 41167  14.9789 268.1169 0008236 234.6113 125.3439 15.23131198581051
GAOFEN-4                
1 41194U 15083A   26167.77709462 -.00000337  00000+0  00000+0 0  9992
2 41194   0.3561  83.7666 0004378 115.3857  91.3346  1.00268878 38528
JASON-3                 
1 41240U 16002A   26168.15797016 -.00000064  00000+0 -83055-5 0  9996
2 41240  66.0402 125.8963 0008518 272.7783  87.2261 12.87628053487246
SENTINEL-3A             
1 41335U 16011A   26168.14642413  .00000085  00000+0  53185-4 0  9991
2 41335  98.6249 235.5307 0001402 102.1879 257.9459 14.26739977538053
ZIYUAN 3-02 (ZY 3-02)   
1 41556U 16033A   26168.18969394  .00003850  00000+0  17402-3 0  9998
2 41556  97.3835 243.9648 0011180 289.6111  70.3918 15.21481165557989
CARTOSAT-2C             
1 41599U 16040A   26168.19225405  .00002919  00000+0  14183-3 0  9990
2 41599  97.4478 228.1705 0009975 130.4698 229.7408 15.19190466553710
SKYSAT-C1               
1 41601U 16040C   26168.08607934  .00007260  00000+0  20723-3 0  9994
2 41601  96.9554 199.8114 0003482  58.3671 301.7914 15.36299967557854
LAPAN-A3                
1 41603U 16040E   26168.19115660  .00002751  00000+0  88254-4 0  9992
2 41603  97.1487 164.3366 0010880  25.8876 334.2909 15.33104474554819
GAOFEN-3                
1 41727U 16049A   26168.22273233  .00000126  00000+0  51453-4 0  9998
2 41727  98.4003 176.0081 0001399  99.9338 260.2010 14.42215892518657
