OBJECT_NAME,OBJECT_ID,EPOCH,MEAN_MOTION,ECCENTRICITY,INCLINATION,RA_OF_ASC_NODE,ARG_OF_PERICENTER,MEAN_ANOMALY,EPHEMERIS_TYPE,CLASSIFICATION_TYPE,NORAD_CAT_ID,ELEMENT_SET_NO,REV_AT_EPOCH,BSTAR,MEAN_MOTION_DOT,MEAN_MOTION_DDOT
HODOYOSHI-4,2014-033B,2026-06-17T04:02:42.815904,14.88125721,.0022555,97.5445,352.9918,308.6682,51.2517,0,U,40011,999,64880,.2473E-4,.176E-5,0
DEIMOS-2,2014-033D,2026-06-17T04:23:44.255904,14.93724142,.0001411,97.5825,42.6722,47.3404,312.7935,0,U,40013,999,63772,.11139E-3,.1125E-4,0
HODOYOSHI-3,2014-033F,2026-06-17T04:26:25.370304,14.85388519,.0032688,97.6417,331.2255,357.3361,2.7675,0,U,40015,999,64762,.99907E-4,.815E-5,0
SPOT 7,2014-034A,2026-06-17T04:21:28.341792,14.60958328,.0001206,98.0630,230.6732,92.4183,267.7156,0,U,40053,999,63713,.67318E-4,.285E-5,0
SKYSAT-B,2014-037D,2026-06-16T20:32:52.194624,14.88027256,.0004206,98.3839,126.8022,283.2446,76.8299,0,U,40072,999,64591,.13026E-3,.1135E-4,0
WORLDVIEW-3 (WV-3),2014-048A,2026-06-17T04:01:00.278112,14.85021902,.0000989,97.8567,243.0005,26.0300,334.0965,0,U,40115,999,64190,.84323E-4,.666E-5,0
GAOFEN-2,2014-049A,2026-06-17T04:13:56.615808,14.80896664,.0006119,98.0112,232.3833,227.2194,132.8504,0,U,40118,999,63923,-.94984E-5,-.127E-5,0
YAOGAN-21,2014-053A,2026-06-17T03:54:09.470304,15.26371775,.0009968,97.1468,208.3989,93.6249,266.6130,0,U,40143,999,65495,.16171E-3,.414E-4,0
YAOGAN-22,2014-063A,2026-06-17T04:27:23.449248,13.15531089,.0006341,100.7724,319.4588,185.2733,174.8312,0,U,40275,999,55981,-.42531E-4,-.63E-6,0
ASNARO,2014-070A,2026-06-17T03:49:22.693152,15.19432636,.000564,97.3453,244.2736,165.8981,194.2413,0,U,40298,999,64400,.26659E-3,.5584E-4,0
YAOGAN-24,2014-072A,2026-06-17T05:13:25.826592,14.76223316,.0012533,98.1492,305.5554,263.5093,96.4689,0,U,40310,999,62372,.10861E-3,.699E-5,0
CBERS 4,2014-079A,2026-06-17T04:14:19.635360,14.35508874,.0001839,98.3532,225.0084,64.3753,295.7623,0,U,40336,999,60395,.15125E-4,.1E-7,0
YAOGAN-26,2014-088A,2026-06-17T04:45:27.586944,15.47357520,.0006006,97.0635,168.4074,67.5957,292.5930,0,U,40362,999,63770,.44594E-3,.22753E-3,0
SMAP,2015-003A,2026-06-17T03:33:30.420000,14.63366622,.0001328,98.1276,175.2433,96.8431,263.2922,0,U,40376,999,60761,.73834E-4,.335E-5,0
KOMPSAT-3A,2015-014A,2026-06-17T05:48:16.307424,15.53995951,.0056477,97.6885,159.6081,174.2868,185.9042,0,U,40536,999,62182,.3081E-3,.21269E-3,0
SENTINEL-2A,2015-028A,2026-06-17T03:28:27.334848,14.30814810,.0001097,98.5689,242.9966,91.4109,268.7200,0,U,40697,999,57372,-.13336E-4,-.79E-6,0
GAOFEN-8,2015-030A,2026-06-17T05:12:47.625696,15.45945835,.0008693,97.6896,1.5884,186.3664,173.7475,0,U,40701,999,61145,.24434E-3,.11819E-3,0
CARBONITE 1 (CBNT-1),2015-032D,2026-06-17T04:22:49.084320,14.83586115,.0013174,97.6499,346.2485,298.0259,61.9623,0,U,40718,999,58934,.15385E-3,.1219E-4,0
YAOGAN-27,2015-040A,2026-06-17T04:20:04.094016,13.16069682,.0007666,100.1145,154.5637,210.3727,149.6943,0,U,40878,999,51766,.6114E-3,.19E-5,0
GAOFEN-9 01,2015-047A,2026-06-17T04:44:27.075840,14.82883926,.0028398,97.6275,203.8919,137.7682,222.5727,0,U,40894,999,58019,.10706E-3,.823E-5,0
YAOGAN-28,2015-064A,2026-06-17T04:36:05.436576,15.27420841,.0010606,97.3080,306.4527,183.2076,176.9097,0,U,41026,999,59068,.22148E-3,.588E-4,0
YAOGAN-29,2015-069A,2026-06-17T04:16:02.936064,14.83086557,.0002607,98.0021,196.8106,55.8914,304.2547,0,U,41038,999,57062,.89405E-4,.674E-5,0
KENT RIDGE 1,2015-077B,2026-06-16T21:38:07.994688,15.23131198,.0008236,14.9789,268.1169,234.6113,125.3439,0,U,41167,999,58105,.11248E-3,.35E-4,0
GAOFEN-4,2015-083A,2026-06-16T18:39:00.975168,1.00268878,.0004378,0.3561,83.7666,115.3857,91.3346,0,U,41194,999,3852,0,-.337E-5,0
JASON-3,2016-002A,2026-06-17T03:47:28.621824,12.87628053,.0008518,66.0402,125.8963,272.7783,87.2261,0,U,41240,999,48724,-.83055E-5,-.64E-6,0
SENTINEL-3A,2016-011A,2026-06-17T03:30:51.044832,14.26739977,.0001402,98.6249,235.5307,102.1879,257.9459,0,U,41335,999,53805,.53185E-4,.85E-6,0
ZIYUAN 3-02 (ZY 3-02),2016-033A,2026-06-17T04:33:09.556416,15.21481165,.001118,97.3835,243.9648,289.6111,70.3918,0,U,41556,999,55798,.17402E-3,.385E-4,0
CARTOSAT-2C,2016-040A,2026-06-17T04:36:50.749920,15.19190466,.0009975,97.4478,228.1705,130.4698,229.7408,0,U,41599,999,55371,.14183E-3,.2919E-4,0
SKYSAT-C1,2016-040C,2026-06-17T02:03:57.254976,15.36299967,.0003482,96.9554,199.8114,58.3671,301.7914,0,U,41601,999,55785,.20723E-3,.726E-4,0
LAPAN-A3,2016-040E,2026-06-17T04:35:15.930240,15.33104474,.001088,97.1487,164.3366,25.8876,334.2909,0,U,41603,999,55481,.88254E-4,.2751E-4,0
GAOFEN-3,2016-049A,2026-06-17T05:20:44.073312,14.42215892,.0001399,98.4003,176.0081,99.9338,260.2010,0,U,41727,999,51865,.51453E-4,.126E-5,0
